[{"OBJECT_NAME":"GPS BIII-9  (PRN 20)","OBJECT_ID":"2026-017A","EPOCH":"2026-03-03T23:57:34.401312","MEAN_MOTION":2.00560918,"ECCENTRICITY":0.00015162,"INCLINATION":55.0184,"RA_OF_ASC_NODE":92.9751,"ARG_OF_PERICENTER":18.2827,"MEAN_ANOMALY":341.7919,"EPHEMERIS_TYPE":0,"CLASSIFICATION_TYPE":"U","NORAD_CAT_ID":67588,"ELEMENT_SET_NO":999,"REV_AT_EPOCH":42950,"BSTAR":0,"MEAN_MOTION_DOT":1.2e-7,"MEAN_MOTION_DDOT":0}]
